BEIDOU-3S M1S           
1 40749U 15037B   25318.23952190 -.00000070  00000+0  00000+0 0  9996
2 40749  55.0603 309.4319 0003091 352.8503   7.1494  1.86253941 70127
BEIDOU-3S IGSO-2S       
1 40938U 15053A   25321.80569512 -.00000169  00000+0  00000+0 0  9992
2 40938  49.5524 261.3011 0060927 189.3879 352.6144  1.00276148 37237
BEIDOU-2 IGSO-6         
1 41434U 16021A   25321.71724291 -.00000166  00000+0  00000+0 0  9994
2 41434  59.9303  40.1506 0059096 230.4532 137.5397  1.00259733 35363
BEIDOU-3 M1             
1 43001U 17069A   25320.49874789 -.00000061  00000+0  00000+0 0  9995
2 43001  56.5051  70.1008 0008148 304.7156  55.1900  1.86231190 54645
BEIDOU-3 M2             
1 43002U 17069B   25321.51098067 -.00000064  00000+0  00000+0 0  9990
2 43002  56.5049  70.1037 0005744 337.0551  22.9007  1.86230821 54653
BEIDOU-3 M7             
1 43107U 18003A   25321.25440951 -.00000083  00000+0  00000+0 0  9990
2 43107  54.5194 309.7010 0002383  75.9843 284.0399  1.86232548 53403
BEIDOU-3 M8             
1 43108U 18003B   25321.73605668 -.00000083  00000+0  00000+0 0  9992
2 43108  54.5118 309.6672 0004941 270.1001  89.8395  1.86231039 53423
BEIDOU-3 M4             
1 43207U 18018A   25322.17785067 -.00000065  00000+0  00000+0 0  9999
2 43207  56.4655  70.1168 0004027  22.9766 337.0231  1.86231167 52817
BEIDOU-3 M3             
1 43208U 18018B   25321.70743791 -.00000065  00000+0  00000+0 0  9996
2 43208  56.4644  70.1365 0005694 319.7207  40.2186  1.86231325 52800
BEIDOU-3 M9             
1 43245U 18029A   25320.31251774 -.00000081  00000+0  00000+0 0  9998
2 43245  54.3897 307.3889 0001854 265.3448  94.6308  1.86228363 51931
BEIDOU-3 M10            
1 43246U 18029B   25321.32180461 -.00000083  00000+0  00000+0 0  9997
2 43246  54.3863 307.3815 0003676 356.5010   3.4906  1.86229142 51934
BEIDOU-2 IGSO-7         
1 43539U 18057A   25320.00657169 -.00000042  00000+0  00000+0 0  9996
2 43539  55.1708 164.9059 0091931 235.3968 129.5278  1.00265453 26991
