[
    {
        "OBJECT_NAME": "BEIDOU-3S M1S (C57)",
        "OBJECT_ID": "2015-037B",
        "EPOCH": "2025-11-14T05:44:54.692160",
        "MEAN_MOTION": 1.86253941,
        "ECCENTRICITY": 0.00030914,
        "INCLINATION": 55.0603,
        "RA_OF_ASC_NODE": 309.4319,
        "ARG_OF_PERICENTER": 352.8503,
        "MEAN_ANOMALY": 7.1494,
        "EPHEMERIS_TYPE": 0,
        "CLASSIFICATION_TYPE": "U",
        "NORAD_CAT_ID": 40749,
        "ELEMENT_SET_NO": 999,
        "REV_AT_EPOCH": 7012,
        "BSTAR": 0,
        "MEAN_MOTION_DOT": -7.0e-7,
        "MEAN_MOTION_DDOT": 0
    },
    {
        "OBJECT_NAME": "BEIDOU-3S IGSO-2S (C56)",
        "OBJECT_ID": "2015-053A",
        "EPOCH": "2025-11-17T19:20:12.058368",
        "MEAN_MOTION": 1.00276148,
        "ECCENTRICITY": 0.0060927,
        "INCLINATION": 49.5524,
        "RA_OF_ASC_NODE": 261.3011,
        "ARG_OF_PERICENTER": 189.3879,
        "MEAN_ANOMALY": 352.6144,
        "EPHEMERIS_TYPE": 0,
        "CLASSIFICATION_TYPE": "U",
        "NORAD_CAT_ID": 40938,
        "ELEMENT_SET_NO": 999,
        "REV_AT_EPOCH": 3723,
        "BSTAR": 0,
        "MEAN_MOTION_DOT": -1.69e-6,
        "MEAN_MOTION_DDOT": 0
    },
    {
        "OBJECT_NAME": "BEIDOU-2 IGSO-6 (C13)",
        "OBJECT_ID": "2016-021A",
        "EPOCH": "2025-11-17T17:12:49.787424",
        "MEAN_MOTION": 1.00259733,
        "ECCENTRICITY": 0.0059096,
        "INCLINATION": 59.9303,
        "RA_OF_ASC_NODE": 40.1506,
        "ARG_OF_PERICENTER": 230.4532,
        "MEAN_ANOMALY": 137.5397,
        "EPHEMERIS_TYPE": 0,
        "CLASSIFICATION_TYPE": "U",
        "NORAD_CAT_ID": 41434,
        "ELEMENT_SET_NO": 999,
        "REV_AT_EPOCH": 3536,
        "BSTAR": 0,
        "MEAN_MOTION_DOT": -1.66e-6,
        "MEAN_MOTION_DDOT": 0
    },
    {
        "OBJECT_NAME": "BEIDOU-3 M1 (C19)",
        "OBJECT_ID": "2017-069A",
        "EPOCH": "2025-11-16T11:58:11.817696",
        "MEAN_MOTION": 1.8623119,
        "ECCENTRICITY": 0.0008148,
        "INCLINATION": 56.5051,
        "RA_OF_ASC_NODE": 70.1008,
        "ARG_OF_PERICENTER": 304.7156,
        "MEAN_ANOMALY": 55.19,
        "EPHEMERIS_TYPE": 0,
        "CLASSIFICATION_TYPE": "U",
        "NORAD_CAT_ID": 43001,
        "ELEMENT_SET_NO": 999,
        "REV_AT_EPOCH": 5464,
        "BSTAR": 0,
        "MEAN_MOTION_DOT": -6.1e-7,
        "MEAN_MOTION_DDOT": 0
    },
    {
        "OBJECT_NAME": "BEIDOU-3 M2 (C20)",
        "OBJECT_ID": "2017-069B",
        "EPOCH": "2025-11-17T12:15:48.729888",
        "MEAN_MOTION": 1.86230821,
        "ECCENTRICITY": 0.00057447,
        "INCLINATION": 56.5049,
        "RA_OF_ASC_NODE": 70.1037,
        "ARG_OF_PERICENTER": 337.0551,
        "MEAN_ANOMALY": 22.9007,
        "EPHEMERIS_TYPE": 0,
        "CLASSIFICATION_TYPE": "U",
        "NORAD_CAT_ID": 43002,
        "ELEMENT_SET_NO": 999,
        "REV_AT_EPOCH": 5465,
        "BSTAR": 0,
        "MEAN_MOTION_DOT": -6.4e-7,
        "MEAN_MOTION_DDOT": 0
    },
    {
        "OBJECT_NAME": "BEIDOU-3 M7 (C27)",
        "OBJECT_ID": "2018-003A",
        "EPOCH": "2025-11-17T06:06:20.981664",
        "MEAN_MOTION": 1.86232548,
        "ECCENTRICITY": 0.00023836,
        "INCLINATION": 54.5194,
        "RA_OF_ASC_NODE": 309.701,
        "ARG_OF_PERICENTER": 75.9843,
        "MEAN_ANOMALY": 284.0399,
        "EPHEMERIS_TYPE": 0,
        "CLASSIFICATION_TYPE": "U",
        "NORAD_CAT_ID": 43107,
        "ELEMENT_SET_NO": 999,
        "REV_AT_EPOCH": 5340,
        "BSTAR": 0,
        "MEAN_MOTION_DOT": -8.3e-7,
        "MEAN_MOTION_DDOT": 0
    },
    {
        "OBJECT_NAME": "BEIDOU-3 M8 (C28)",
        "OBJECT_ID": "2018-003B",
        "EPOCH": "2025-11-17T17:39:55.297152",
        "MEAN_MOTION": 1.86231039,
        "ECCENTRICITY": 0.0004941,
        "INCLINATION": 54.5118,
        "RA_OF_ASC_NODE": 309.6672,
        "ARG_OF_PERICENTER": 270.1001,
        "MEAN_ANOMALY": 89.8395,
        "EPHEMERIS_TYPE": 0,
        "CLASSIFICATION_TYPE": "U",
        "NORAD_CAT_ID": 43108,
        "ELEMENT_SET_NO": 999,
        "REV_AT_EPOCH": 5342,
        "BSTAR": 0,
        "MEAN_MOTION_DOT": -8.3e-7,
        "MEAN_MOTION_DDOT": 0
    },
    {
        "OBJECT_NAME": "BEIDOU-3 M4 (C22)",
        "OBJECT_ID": "2018-018A",
        "EPOCH": "2025-11-18T04:16:06.297888",
        "MEAN_MOTION": 1.86231167,
        "ECCENTRICITY": 0.0004027,
        "INCLINATION": 56.4655,
        "RA_OF_ASC_NODE": 70.1168,
        "ARG_OF_PERICENTER": 22.9766,
        "MEAN_ANOMALY": 337.0231,
        "EPHEMERIS_TYPE": 0,
        "CLASSIFICATION_TYPE": "U",
        "NORAD_CAT_ID": 43207,
        "ELEMENT_SET_NO": 999,
        "REV_AT_EPOCH": 5281,
        "BSTAR": 0,
        "MEAN_MOTION_DOT": -6.5e-7,
        "MEAN_MOTION_DDOT": 0
    },
    {
        "OBJECT_NAME": "BEIDOU-3 M3 (C21)",
        "OBJECT_ID": "2018-018B",
        "EPOCH": "2025-11-17T16:58:42.635424",
        "MEAN_MOTION": 1.86231325,
        "ECCENTRICITY": 0.0005694,
        "INCLINATION": 56.4644,
        "RA_OF_ASC_NODE": 70.1365,
        "ARG_OF_PERICENTER": 319.7207,
        "MEAN_ANOMALY": 40.2186,
        "EPHEMERIS_TYPE": 0,
        "CLASSIFICATION_TYPE": "U",
        "NORAD_CAT_ID": 43208,
        "ELEMENT_SET_NO": 999,
        "REV_AT_EPOCH": 5280,
        "BSTAR": 0,
        "MEAN_MOTION_DOT": -6.5e-7,
        "MEAN_MOTION_DDOT": 0
    },
    {
        "OBJECT_NAME": "BEIDOU-3 M9 (C29)",
        "OBJECT_ID": "2018-029A",
        "EPOCH": "2025-11-16T07:30:01.532736",
        "MEAN_MOTION": 1.86228363,
        "ECCENTRICITY": 0.00018548,
        "INCLINATION": 54.3897,
        "RA_OF_ASC_NODE": 307.3889,
        "ARG_OF_PERICENTER": 265.3448,
        "MEAN_ANOMALY": 94.6308,
        "EPHEMERIS_TYPE": 0,
        "CLASSIFICATION_TYPE": "U",
        "NORAD_CAT_ID": 43245,
        "ELEMENT_SET_NO": 999,
        "REV_AT_EPOCH": 5193,
        "BSTAR": 0,
        "MEAN_MOTION_DOT": -8.1e-7,
        "MEAN_MOTION_DDOT": 0
    },
    {
        "OBJECT_NAME": "BEIDOU-3 M10 (C30)",
        "OBJECT_ID": "2018-029B",
        "EPOCH": "2025-11-17T07:43:23.918304",
        "MEAN_MOTION": 1.86229142,
        "ECCENTRICITY": 0.00036762,
        "INCLINATION": 54.3863,
        "RA_OF_ASC_NODE": 307.3815,
        "ARG_OF_PERICENTER": 356.501,
        "MEAN_ANOMALY": 3.4906,
        "EPHEMERIS_TYPE": 0,
        "CLASSIFICATION_TYPE": "U",
        "NORAD_CAT_ID": 43246,
        "ELEMENT_SET_NO": 999,
        "REV_AT_EPOCH": 5193,
        "BSTAR": 0,
        "MEAN_MOTION_DOT": -8.3e-7,
        "MEAN_MOTION_DDOT": 0
    },
    {
        "OBJECT_NAME": "BEIDOU-2 IGSO-7 (C16)",
        "OBJECT_ID": "2018-057A",
        "EPOCH": "2025-11-16T00:09:27.794016",
        "MEAN_MOTION": 1.00265453,
        "ECCENTRICITY": 0.00919311,
        "INCLINATION": 55.1708,
        "RA_OF_ASC_NODE": 164.9059,
        "ARG_OF_PERICENTER": 235.3968,
        "MEAN_ANOMALY": 129.5278,
        "EPHEMERIS_TYPE": 0,
        "CLASSIFICATION_TYPE": "U",
        "NORAD_CAT_ID": 43539,
        "ELEMENT_SET_NO": 999,
        "REV_AT_EPOCH": 2699,
        "BSTAR": 0,
        "MEAN_MOTION_DOT": -4.2e-7,
        "MEAN_MOTION_DDOT": 0
    }
]